[{"OBJECT_NAME":"QPS-SAR-1 (IZANAGI)","OBJECT_ID":"2019-089E","EPOCH":"2024-01-29T11:38:38.262912","MEAN_MOTION":15.22547323,"ECCENTRICITY":0.0007149,"INCLINATION":36.9591,"RA_OF_ASC_NODE":155.2589,"ARG_OF_PERICENTER":55.7664,"MEAN_ANOMALY":304.3762,"EPHEMERIS_TYPE":0,"CLASSIFICATION_TYPE":"U","NORAD_CAT_ID":44856,"ELEMENT_SET_NO":999,"REV_AT_EPOCH":22728,"BSTAR":0.0016448,"MEAN_MOTION_DOT":0.00039185,"MEAN_MOTION_DDOT":0},{"OBJECT_NAME":"RISAT-2BR1","OBJECT_ID":"2019-089F","EPOCH":"2024-01-29T10:13:47.446176","MEAN_MOTION":14.98690235,"ECCENTRICITY":0.0012323,"INCLINATION":36.9592,"RA_OF_ASC_NODE":222.705,"ARG_OF_PERICENTER":352.1362,"MEAN_ANOMALY":7.9184,"EPHEMERIS_TYPE":0,"CLASSIFICATION_TYPE":"U","NORAD_CAT_ID":44857,"ELEMENT_SET_NO":999,"REV_AT_EPOCH":22655,"BSTAR":0.00037468,"MEAN_MOTION_DOT":4.519e-5,"MEAN_MOTION_DDOT":0},{"OBJECT_NAME":"IHOPSAT-TD","OBJECT_ID":"2019-089H","EPOCH":"2024-01-28T22:38:50.403552","MEAN_MOTION":15.02745801,"ECCENTRICITY":0.0006645,"INCLINATION":36.9675,"RA_OF_ASC_NODE":210.6955,"ARG_OF_PERICENTER":304.8025,"MEAN_ANOMALY":55.2092,"EPHEMERIS_TYPE":0,"CLASSIFICATION_TYPE":"U","NORAD_CAT_ID":44859,"ELEMENT_SET_NO":999,"REV_AT_EPOCH":22665,"BSTAR":0.00028636,"MEAN_MOTION_DOT":3.824e-5,"MEAN_MOTION_DDOT":0},{"OBJECT_NAME":"LEMUR-2-HIMOMANDDAD","OBJECT_ID":"2019-089J","EPOCH":"2024-01-29T11:15:55.387584","MEAN_MOTION":15.28157262,"ECCENTRICITY":0.0008685,"INCLINATION":36.9622,"RA_OF_ASC_NODE":139.3893,"ARG_OF_PERICENTER":90.2675,"MEAN_ANOMALY":269.9071,"EPHEMERIS_TYPE":0,"CLASSIFICATION_TYPE":"U","NORAD_CAT_ID":44860,"ELEMENT_SET_NO":999,"REV_AT_EPOCH":22744,"BSTAR":0.001929,"MEAN_MOTION_DOT":0.00054582,"MEAN_MOTION_DDOT":0},{"OBJECT_NAME":"LEMUR-2-PAPPY","OBJECT_ID":"2019-089K","EPOCH":"2024-01-28T18:42:07.115328","MEAN_MOTION":15.23084974,"ECCENTRICITY":0.0008194,"INCLINATION":36.9586,"RA_OF_ASC_NODE":151.4505,"ARG_OF_PERICENTER":66.0256,"MEAN_ANOMALY":294.1351,"EPHEMERIS_TYPE":0,"CLASSIFICATION_TYPE":"U","NORAD_CAT_ID":44861,"ELEMENT_SET_NO":999,"REV_AT_EPOCH":22721,"BSTAR":0.0014463,"MEAN_MOTION_DOT":0.00034986,"MEAN_MOTION_DDOT":0},{"OBJECT_NAME":"LEMUR-2-THEODOSIA","OBJECT_ID":"2019-089M","EPOCH":"2024-01-29T10:25:23.355840","MEAN_MOTION":15.26790245,"ECCENTRICITY":0.0005702,"INCLINATION":36.9636,"RA_OF_ASC_NODE":138.0934,"ARG_OF_PERICENTER":83.4925,"MEAN_ANOMALY":276.6475,"EPHEMERIS_TYPE":0,"CLASSIFICATION_TYPE":"U","NORAD_CAT_ID":44863,"ELEMENT_SET_NO":999,"REV_AT_EPOCH":22732,"BSTAR":0.0016864,"MEAN_MOTION_DOT":0.0004567,"MEAN_MOTION_DDOT":0},{"OBJECT_NAME":"BEIDOU-3 M19","OBJECT_ID":"2019-090A","EPOCH":"2024-01-29T04:57:33.630336","MEAN_MOTION":1.86231765,"ECCENTRICITY":0.0018853,"INCLINATION":55.8156,"RA_OF_ASC_NODE":91.7316,"ARG_OF_PERICENTER":276.1387,"MEAN_ANOMALY":179.2048,"EPHEMERIS_TYPE":0,"CLASSIFICATION_TYPE":"U","NORAD_CAT_ID":44864,"ELEMENT_SET_NO":999,"REV_AT_EPOCH":2802,"BSTAR":0,"MEAN_MOTION_DOT":-2.1e-7,"MEAN_MOTION_DDOT":0},{"OBJECT_NAME":"BEIDOU-3 M20","OBJECT_ID":"2019-090B","EPOCH":"2024-01-27T11:09:22.632192","MEAN_MOTION":1.86231736,"ECCENTRICITY":0.0016342,"INCLINATION":55.8162,"RA_OF_ASC_NODE":91.8229,"ARG_OF_PERICENTER":288.0037,"MEAN_ANOMALY":169.3159,"EPHEMERIS_TYPE":0,"CLASSIFICATION_TYPE":"U","NORAD_CAT_ID":44865,"ELEMENT_SET_NO":999,"REV_AT_EPOCH":2798,"BSTAR":0,"MEAN_MOTION_DOT":-2.2e-7,"MEAN_MOTION_DDOT":0},{"OBJECT_NAME":"JCSAT-18 (KACIFIC 1)","OBJECT_ID":"2019-091A","EPOCH":"2024-01-28T20:52:25.896288","MEAN_MOTION":1.00271146,"ECCENTRICITY":4.39e-5,"INCLINATION":0.003,"RA_OF_ASC_NODE":295.6618,"ARG_OF_PERICENTER":346.5813,"MEAN_ANOMALY":308.4673,"EPHEMERIS_TYPE":0,"CLASSIFICATION_TYPE":"U","NORAD_CAT_ID":44868,"ELEMENT_SET_NO":999,"REV_AT_EPOCH":1529,"BSTAR":0,"MEAN_MOTION_DOT":-1.93e-6,"MEAN_MOTION_DDOT":0},{"OBJECT_NAME":"CSG-1","OBJECT_ID":"2019-092A","EPOCH":"2024-01-29T12:22:46.559424","MEAN_MOTION":14.82155004,"ECCENTRICITY":0.0001399,"INCLINATION":97.8811,"RA_OF_ASC_NODE":214.7173,"ARG_OF_PERICENTER":76.2204,"MEAN_ANOMALY":283.9165,"EPHEMERIS_TYPE":0,"CLASSIFICATION_TYPE":"U","NORAD_CAT_ID":44873,"ELEMENT_SET_NO":999,"REV_AT_EPOCH":22265,"BSTAR":0.00014484,"MEAN_MOTION_DOT":1.101e-5,"MEAN_MOTION_DDOT":0},{"OBJECT_NAME":"CHEOPS","OBJECT_ID":"2019-092B","EPOCH":"2024-01-28T22:36:57.643776","MEAN_MOTION":14.60419018,"ECCENTRICITY":0.0009821,"INCLINATION":98.1522,"RA_OF_ASC_NODE":218.9229,"ARG_OF_PERICENTER":307.1729,"MEAN_ANOMALY":52.8575,"EPHEMERIS_TYPE":0,"CLASSIFICATION_TYPE":"U","NORAD_CAT_ID":44874,"ELEMENT_SET_NO":999,"REV_AT_EPOCH":21880,"BSTAR":0.0001569,"MEAN_MOTION_DOT":7.14e-6,"MEAN_MOTION_DDOT":0},{"OBJECT_NAME":"ANGELS","OBJECT_ID":"2019-092D","EPOCH":"2024-01-29T12:27:49.273920","MEAN_MOTION":15.24495285,"ECCENTRICITY":0.0011713,"INCLINATION":97.4738,"RA_OF_ASC_NODE":218.1317,"ARG_OF_PERICENTER":90.8098,"MEAN_ANOMALY":269.4481,"EPHEMERIS_TYPE":0,"CLASSIFICATION_TYPE":"U","NORAD_CAT_ID":44876,"ELEMENT_SET_NO":999,"REV_AT_EPOCH":22806,"BSTAR":0.00033271,"MEAN_MOTION_DOT":8.123e-5,"MEAN_MOTION_DDOT":0},{"OBJECT_NAME":"OPS-SAT","OBJECT_ID":"2019-092F","EPOCH":"2024-01-29T02:35:41.180064","MEAN_MOTION":15.52465464,"ECCENTRICITY":0.0006403,"INCLINATION":97.457,"RA_OF_ASC_NODE":228.1318,"ARG_OF_PERICENTER":33.9049,"MEAN_ANOMALY":326.2612,"EPHEMERIS_TYPE":0,"CLASSIFICATION_TYPE":"U","NORAD_CAT_ID":44878,"ELEMENT_SET_NO":999,"REV_AT_EPOCH":22860,"BSTAR":0.0012514,"MEAN_MOTION_DOT":0.00077135,"MEAN_MOTION_DDOT":0},{"OBJECT_NAME":"TIANQIN 1 (CAS-6)","OBJECT_ID":"2019-093A","EPOCH":"2024-01-29T11:00:55.510848","MEAN_MOTION":14.85832857,"ECCENTRICITY":0.001473,"INCLINATION":97.8479,"RA_OF_ASC_NODE":110.8157,"ARG_OF_PERICENTER":56.4833,"MEAN_ANOMALY":303.7787,"EPHEMERIS_TYPE":0,"CLASSIFICATION_TYPE":"U","NORAD_CAT_ID":44879,"ELEMENT_SET_NO":999,"REV_AT_EPOCH":22243,"BSTAR":0.00044306,"MEAN_MOTION_DOT":3.81e-5,"MEAN_MOTION_DDOT":0},{"OBJECT_NAME":"ETRSS-1","OBJECT_ID":"2019-093B","EPOCH":"2024-01-29T10:45:45.507168","MEAN_MOTION":14.85956198,"ECCENTRICITY":0.0015009,"INCLINATION":97.8485,"RA_OF_ASC_NODE":110.8978,"ARG_OF_PERICENTER":58.0873,"MEAN_ANOMALY":302.1799,"EPHEMERIS_TYPE":0,"CLASSIFICATION_TYPE":"U","NORAD_CAT_ID":44880,"ELEMENT_SET_NO":999,"REV_AT_EPOCH":22242,"BSTAR":0.00051628,"MEAN_MOTION_DOT":4.463e-5,"MEAN_MOTION_DDOT":0},{"OBJECT_NAME":"TIANYAN 01","OBJECT_ID":"2019-093C","EPOCH":"2024-01-29T10:02:02.348736","MEAN_MOTION":14.83220308,"ECCENTRICITY":0.001577,"INCLINATION":97.8419,"RA_OF_ASC_NODE":108.882,"ARG_OF_PERICENTER":62.3814,"MEAN_ANOMALY":297.8999,"EPHEMERIS_TYPE":0,"CLASSIFICATION_TYPE":"U","NORAD_CAT_ID":44881,"ELEMENT_SET_NO":999,"REV_AT_EPOCH":22232,"BSTAR":0.00019954,"MEAN_MOTION_DOT":1.58e-5,"MEAN_MOTION_DDOT":0},{"OBJECT_NAME":"TIANYAN 02","OBJECT_ID":"2019-093D","EPOCH":"2024-01-29T09:56:27.289536","MEAN_MOTION":14.87976652,"ECCENTRICITY":0.0015321,"INCLINATION":97.8552,"RA_OF_ASC_NODE":112.8954,"ARG_OF_PERICENTER":54.9558,"MEAN_ANOMALY":305.3093,"EPHEMERIS_TYPE":0,"CLASSIFICATION_TYPE":"U","NORAD_CAT_ID":44882,"ELEMENT_SET_NO":999,"REV_AT_EPOCH":22249,"BSTAR":0.00064832,"MEAN_MOTION_DOT":5.906e-5,"MEAN_MOTION_DDOT":0}]
