44856,QPS-SAR-1 (IZANAGI),2019,94.59,100.0,+,36.96,Active,1,LEO,India,Japan,Commercial,Earth Observation,PSLV,1 44856U 19089E   24029.48516508  .00039185  00000+0  16448-2 0  9998,2 44856  36.9591 155.2589 0007149  55.7664 304.3762 15.22547323227281,15.22547323,0.0007149,LEO
44857,RISAT-2BR1,2019,96.08,628.0,+,36.96,Active,1,LEO,India,India,Military,Earth Observation,PSLV,1 44857U 19089F   24029.42624359  .00004519  00000+0  37468-3 0  9996,2 44857  36.9592 222.7050 0012323 352.1362   7.9184 14.98690235226551,14.98690235,0.0012323,LEO
44859,IHOPSAT-TD,2019,95.83,22.0,+,36.97,Active,1,LEO,India,USA,Commercial,Earth Observation,PSLV,1 44859U 19089H   24028.94363893  .00003824  00000+0  28636-3 0  9992,2 44859  36.9675 210.6955 0006645 304.8025  55.2092 15.02745801226656,15.02745801,0.0006645,LEO
44860,LEMUR-2-HIMOMANDDAD,2019,94.24,10.0,+,36.96,Active,1,LEO,India,USA,Commercial,Earth Observation,PSLV,1 44860U 19089J   24029.46939106  .00054582  00000+0  19290-2 0  9990,2 44860  36.9622 139.3893 0008685  90.2675 269.9071 15.28157262227446,15.28157262,0.0008685,LEO
44861,LEMUR-2-PAPPY,2019,94.55,10.0,+,36.96,Active,1,LEO,India,USA,Commercial,Earth Observation,PSLV,1 44861U 19089K   24028.77924902  .00034986  00000+0  14463-2 0  9995,2 44861  36.9586 151.4505 0008194  66.0256 294.1351 15.23084974227212,15.23084974,0.0008194,LEO
44863,LEMUR-2-THEODOSIA,2019,94.33,10.0,+,36.96,Active,1,LEO,India,USA,Commercial,Earth Observation,PSLV,1 44863U 19089M   24029.43429810  .00045670  00000+0  16864-2 0  9998,2 44863  36.9636 138.0934 0005702  83.4925 276.6475 15.26790245227327,15.26790245,0.0005702,LEO
44864,BEIDOU-3 M19,2019,773.23,800.0,+,55.81,Active,1,MEO,PRC,China,Government/Military,Navigation (Global or Regional Positioning),Long March,1 44864U 19090A   24029.20663924 -.00000021  00000+0  00000+0 0  9996,2 44864  55.8156  91.7316 0018853 276.1387 179.2048  1.86231765 28026,1.86231765,0.0018853,MEO
44865,BEIDOU-3 M20,2019,773.23,800.0,+,55.82,Active,1,MEO,PRC,China,Government/Military,Navigation (Global or Regional Positioning),Long March,1 44865U 19090B   24027.46484528 -.00000022  00000+0  00000+0 0  9995,2 44865  55.8162  91.8229 0016342 288.0037 169.3159  1.86231736 27988,1.86231736,0.0016342,MEO
44868,JCSAT-18 (KACIFIC 1),2019,1436.11,6956.0,+,0.0,Active,1,GSO,USA,Japan,Commercial,Communications,Falcon,1 44868U 19091A   24028.86974417 -.00000193  00000+0  00000+0 0  9994,2 44868   0.0030 295.6618 0000439 346.5813 308.4673  1.00271146 15298,1.00271146,4.39e-05,GEO
44873,CSG-1,2019,97.16,2205.0,+,97.88,Active,1,LEO,French Guiana,Italy,Government/Military,Earth Observation,Soyuz,1 44873U 19092A   24029.51581666  .00001101  00000+0  14484-3 0  9998,2 44873  97.8811 214.7173 0001399  76.2204 283.9165 14.82155004222651,14.82155004,0.0001399,LEO
44874,CHEOPS,2019,98.6,273.0,+,98.15,Active,1,LEO,French Guiana,ESA,Government,Space Science,Soyuz,1 44874U 19092B   24028.94233384  .00000714  00000+0  15690-3 0  9995,2 44874  98.1522 218.9229 0009821 307.1729  52.8575 14.60419018218803,14.60419018,0.0009821,LEO
44876,ANGELS,2019,94.46,18.0,+,97.47,Active,1,LEO,French Guiana,France,Government,Communications,Soyuz,1 44876U 19092D   24029.51932030  .00008123  00000+0  33271-3 0  9992,2 44876  97.4738 218.1317 0011713  90.8098 269.4481 15.24495285228066,15.24495285,0.0011713,LEO
44878,OPS-SAT,2019,92.77,-1.0,+,97.46,Active,0,LEO,French Guiana,ESA,Unknown,Unknown,Unknown,1 44878U 19092F   24029.10811551  .00077135  00000+0  12514-2 0  9998,2 44878  97.4570 228.1318 0006403  33.9049 326.2612 15.52465464228603,15.52465464,0.0006403,LEO
44879,TIANQIN 1 (CAS-6),2019,96.92,40.0,+,97.85,Active,1,LEO,PRC,China,Commercial,Earth Observation,Long March,1 44879U 19093A   24029.45897582  .00003810  00000+0  44306-3 0  9990,2 44879  97.8479 110.8157 0014730  56.4833 303.7787 14.85832857222434,14.85832857,0.001473,LEO
44880,ETRSS-1,2019,96.91,70.0,+,97.85,Active,1,LEO,PRC,Ethiopia,Government,Earth Observation,Long March,1 44880U 19093B   24029.44844337  .00004463  00000+0  51628-3 0  9991,2 44880  97.8485 110.8978 0015009  58.0873 302.1799 14.85956198222426,14.85956198,0.0015009,LEO
44881,TIANYAN 01,2019,97.09,-1.0,+,97.84,Active,1,LEO,PRC,China,Civil,Technology Development,Long March,1 44881U 19093C   24029.41808274  .00001580  00000+0  19954-3 0  9992,2 44881  97.8419 108.8820 0015770  62.3814 297.8999 14.83220308222321,14.83220308,0.001577,LEO
44882,TIANYAN 02,2019,96.78,-1.0,+,97.86,Active,0,LEO,PRC,China,Unknown,Unknown,Unknown,1 44882U 19093D   24029.41420474  .00005906  00000+0  64832-3 0  9996,2 44882  97.8552 112.8954 0015321  54.9558 305.3093 14.87976652222499,14.87976652,0.0015321,LEO
